YAOGAN-30 06A           
1 44449U 19045A   26068.82740719  .00004384  00000+0  32897-3 0  9994
2 44449  34.9928 215.4318 0003189 139.0512 221.0436 15.02102304361666
STARLINK-30487          
1 57924U 23147M   26068.04723376  .00000880  00000+0  80172-4 0  9995
2 57924  43.0054 329.3320 0000049 222.8366 137.2472 15.02542965136521
